{
  "type": "FeatureCollection",
  "features": [
    {
      "type": "Feature",
      "properties": {
        "norad_id": 33765,
        "name": "COSMOS 2251 DEB",
        "group": "cosmos-2251-debris",
        "lat": 6.616148928486677,
        "lon": 152.32630763915597,
        "alt_km": 562.6308416855836,
        "timestamp": "2025-12-23T16:57:12.747181+00:00",
        "meta_object_name": "COSMOS 2251 DEB",
        "meta_object_id": "1993-036N",
        "meta_epoch": "2025-12-23T04:59:08.598624",
        "meta_mean_motion": 15.10538006,
        "meta_eccentricity": 0.00649057,
        "meta_inclination": 74.009,
        "meta_ra_of_asc_node": 151.4516,
        "meta_arg_of_pericenter": 241.8707,
        "meta_mean_anomaly": 293.9919,
        "meta_ephemeris_type": 0,
        "meta_classification_type": "U",
        "meta_norad_cat_id": 33765,
        "meta_element_set_no": 999,
        "meta_rev_at_epoch": 89776,
        "meta_bstar": 0.0016016537,
        "meta_mean_motion_dot": 0.00027841,
        "meta_mean_motion_ddot": 0,
        "tle_line1": "1 33765U 93036N   25357.20773841  .00027841  00000+0  16017-2 0  9997",
        "tle_line2": "2 33765  74.0090 151.4516 0064905 241.8707 293.9919 15.10538006897760"
      },
      "geometry": {
        "type": "Point",
        "coordinates": [
          152.32630763915597,
          6.616148928486677
        ]
      }
    },
    {
      "type": "Feature",
      "properties": {
        "norad_id": 33766,
        "name": "COSMOS 2251 DEB",
        "group": "cosmos-2251-debris",
        "lat": 50.06752300150993,
        "lon": -84.7252851891072,
        "alt_km": 816.0572149422378,
        "timestamp": "2025-12-23T16:57:12.747192+00:00",
        "meta_object_name": "COSMOS 2251 DEB",
        "meta_object_id": "1993-036P",
        "meta_epoch": "2025-12-23T01:18:09.985536",
        "meta_mean_motion": 14.34963042,
        "meta_eccentricity": 0.00647075,
        "meta_inclination": 74.1859,
        "meta_ra_of_asc_node": 116.2487,
        "meta_arg_of_pericenter": 316.7893,
        "meta_mean_anomaly": 42.8193,
        "meta_ephemeris_type": 0,
        "meta_classification_type": "U",
        "meta_norad_cat_id": 33766,
        "meta_element_set_no": 999,
        "meta_rev_at_epoch": 87893,
        "meta_bstar": 0.00049224445,
        "meta_mean_motion_dot": 1.409e-05,
        "meta_mean_motion_ddot": 0,
        "tle_line1": "1 33766U 93036P   25357.05428224  .00001409  00000+0  49224-3 0  9992",
        "tle_line2": "2 33766  74.1859 116.2487 0064707 316.7893  42.8193 14.34963042878939"
      },
      "geometry": {
        "type": "Point",
        "coordinates": [
          -84.7252851891072,
          50.06752300150993
        ]
      }
    },
    {
      "type": "Feature",
      "properties": {
        "norad_id": 33768,
        "name": "COSMOS 2251 DEB",
        "group": "cosmos-2251-debris",
        "lat": -73.68038941591057,
        "lon": 124.83962161169545,
        "alt_km": 1009.863568933496,
        "timestamp": "2025-12-23T16:57:12.747203+00:00",
        "meta_object_name": "COSMOS 2251 DEB",
        "meta_object_id": "1993-036R",
        "meta_epoch": "2025-12-23T00:25:49.926144",
        "meta_mean_motion": 13.58463505,
        "meta_eccentricity": 0.03667822,
        "meta_inclination": 74.0665,
        "meta_ra_of_asc_node": 203.2798,
        "meta_arg_of_pericenter": 358.7824,
        "meta_mean_anomaly": 153.3031,
        "meta_ephemeris_type": 0,
        "meta_classification_type": "U",
        "meta_norad_cat_id": 33768,
        "meta_element_set_no": 999,
        "meta_rev_at_epoch": 83435,
        "meta_bstar": 0.00032770059,
        "meta_mean_motion_dot": 3.49e-06,
        "meta_mean_motion_ddot": 0,
        "tle_line1": "1 33768U 93036R   25357.01793896  .00000349  00000+0  32770-3 0  9990",
        "tle_line2": "2 33768  74.0665 203.2798 0366782 358.7824 153.3031 13.58463505834356"
      },
      "geometry": {
        "type": "Point",
        "coordinates": [
          124.83962161169545,
          -73.68038941591057
        ]
      }
    },
    {
      "type": "Feature",
      "properties": {
        "norad_id": 33779,
        "name": "COSMOS 2251 DEB",
        "group": "cosmos-2251-debris",
        "lat": 67.74836955951638,
        "lon": -166.18175461348028,
        "alt_km": 655.2575064786788,
        "timestamp": "2025-12-23T16:57:12.747214+00:00",
        "meta_object_name": "COSMOS 2251 DEB",
        "meta_object_id": "1993-036U",
        "meta_epoch": "2025-12-23T04:21:23.370336",
        "meta_mean_motion": 14.70706147,
        "meta_eccentricity": 0.00161113,
        "meta_inclination": 74.0451,
        "meta_ra_of_asc_node": 150.471,
        "meta_arg_of_pericenter": 183.2405,
        "meta_mean_anomaly": 353.4123,
        "meta_ephemeris_type": 0,
        "meta_classification_type": "U",
        "meta_norad_cat_id": 33779,
        "meta_element_set_no": 999,
        "meta_rev_at_epoch": 88681,
        "meta_bstar": 0.0026119734,
        "meta_mean_motion_dot": 0.00015957,
        "meta_mean_motion_ddot": 0,
        "tle_line1": "1 33779U 93036U   25357.18152049  .00015957  00000+0  26120-2 0  9991",
        "tle_line2": "2 33779  74.0451 150.4710 0016111 183.2405 353.4123 14.70706147886812"
      },
      "geometry": {
        "type": "Point",
        "coordinates": [
          -166.18175461348028,
          67.74836955951638
        ]
      }
    },
    {
      "type": "Feature",
      "properties": {
        "norad_id": 33782,
        "name": "COSMOS 2251 DEB",
        "group": "cosmos-2251-debris",
        "lat": 73.82807550715118,
        "lon": -21.879519078848293,
        "alt_km": 758.5243046378191,
        "timestamp": "2025-12-23T16:57:12.747225+00:00",
        "meta_object_name": "COSMOS 2251 DEB",
        "meta_object_id": "1993-036X",
        "meta_epoch": "2025-12-23T03:55:10.588800",
        "meta_mean_motion": 14.40472361,
        "meta_eccentricity": 0.00210871,
        "meta_inclination": 74.0329,
        "meta_ra_of_asc_node": 258.2691,
        "meta_arg_of_pericenter": 321.7697,
        "meta_mean_anomaly": 190.3872,
        "meta_ephemeris_type": 0,
        "meta_classification_type": "U",
        "meta_norad_cat_id": 33782,
        "meta_element_set_no": 999,
        "meta_rev_at_epoch": 88276,
        "meta_bstar": 0.00033177605,
        "meta_mean_motion_dot": 1.031e-05,
        "meta_mean_motion_ddot": 0,
        "tle_line1": "1 33782U 93036X   25357.16331700  .00001031  00000+0  33178-3 0  9996",
        "tle_line2": "2 33782  74.0329 258.2691 0021087 321.7697 190.3872 14.40472361882769"
      },
      "geometry": {
        "type": "Point",
        "coordinates": [
          -21.879519078848293,
          73.82807550715118
        ]
      }
    },
    {
      "type": "Feature",
      "properties": {
        "norad_id": 33785,
        "name": "COSMOS 2251 DEB",
        "group": "cosmos-2251-debris",
        "lat": 46.58517128177585,
        "lon": 56.23934458644104,
        "alt_km": 649.61612492123,
        "timestamp": "2025-12-23T16:57:12.747235+00:00",
        "meta_object_name": "COSMOS 2251 DEB",
        "meta_object_id": "1993-036AA",
        "meta_epoch": "2025-12-23T05:38:44.617632",
        "meta_mean_motion": 14.70707339,
        "meta_eccentricity": 0.00232296,
        "meta_inclination": 73.8666,
        "meta_ra_of_asc_node": 39.3484,
        "meta_arg_of_pericenter": 336.8763,
        "meta_mean_anomaly": 98.5115,
        "meta_ephemeris_type": 0,
        "meta_classification_type": "U",
        "meta_norad_cat_id": 33785,
        "meta_element_set_no": 999,
        "meta_rev_at_epoch": 88661,
        "meta_bstar": 0.0019894292,
        "meta_mean_motion_dot": 0.00012165,
        "meta_mean_motion_ddot": 0,
        "tle_line1": "1 33785U 93036AA  25357.23523863  .00012165  00000+0  19894-2 0  9998",
        "tle_line2": "2 33785  73.8666  39.3484 0023229 336.8763  98.5115 14.70707339886618"
      },
      "geometry": {
        "type": "Point",
        "coordinates": [
          56.23934458644104,
          46.58517128177585
        ]
      }
    },
    {
      "type": "Feature",
      "properties": {
        "norad_id": 33789,
        "name": "COSMOS 2251 DEB",
        "group": "cosmos-2251-debris",
        "lat": -58.56918910371524,
        "lon": -83.33349527346078,
        "alt_km": 850.0566674164784,
        "timestamp": "2025-12-23T16:57:12.747246+00:00",
        "meta_object_name": "COSMOS 2251 DEB",
        "meta_object_id": "1993-036AE",
        "meta_epoch": "2025-12-23T05:43:52.454784",
        "meta_mean_motion": 13.88818311,
        "meta_eccentricity": 0.02396769,
        "meta_inclination": 74.0643,
        "meta_ra_of_asc_node": 69.5877,
        "meta_arg_of_pericenter": 182.9041,
        "meta_mean_anomaly": 240.2606,
        "meta_ephemeris_type": 0,
        "meta_classification_type": "U",
        "meta_norad_cat_id": 33789,
        "meta_element_set_no": 999,
        "meta_rev_at_epoch": 85241,
        "meta_bstar": 0.00062342022,
        "meta_mean_motion_dot": 9.24e-06,
        "meta_mean_motion_ddot": 0,
        "tle_line1": "1 33789U 93036AE  25357.23880156  .00000924  00000+0  62342-3 0  9990",
        "tle_line2": "2 33789  74.0643  69.5877 0239676 182.9041 240.2606 13.88818311852418"
      },
      "geometry": {
        "type": "Point",
        "coordinates": [
          -83.33349527346078,
          -58.56918910371524
        ]
      }
    }
  ]
}